TIANQI-3                
1 44314U 19032E   26068.73152499  .00022657  00000+0  65631-3 0  9998
2 44314  45.0009 170.4729 0004737 128.7336 231.3974 15.35231484372778
KUIPER-00200            
1 67772U 26030J   26068.67647234  .00025755  00000+0  70619-3 0  9990
2 67772  51.8819 218.9881 0001049 264.9914  95.0953 15.37115765  5095
