[{"OBJECT_NAME":"TIANQI-3","OBJECT_ID":"2019-032E","EPOCH":"2026-03-09T17:33:23.759136","MEAN_MOTION":15.35231484,"ECCENTRICITY":0.00047367,"INCLINATION":45.0009,"RA_OF_ASC_NODE":170.4729,"ARG_OF_PERICENTER":128.7336,"MEAN_ANOMALY":231.3974,"EPHEMERIS_TYPE":0,"CLASSIFICATION_TYPE":"U","NORAD_CAT_ID":44314,"ELEMENT_SET_NO":999,"REV_AT_EPOCH":37277,"BSTAR":0.0006563115,"MEAN_MOTION_DOT":0.00022657,"MEAN_MOTION_DDOT":0},{"OBJECT_NAME":"KUIPER-00200","OBJECT_ID":"2026-030J","EPOCH":"2026-03-09T16:14:07.210176","MEAN_MOTION":15.37115765,"ECCENTRICITY":0.00010486,"INCLINATION":51.8819,"RA_OF_ASC_NODE":218.9881,"ARG_OF_PERICENTER":264.9914,"MEAN_ANOMALY":95.0953,"EPHEMERIS_TYPE":0,"CLASSIFICATION_TYPE":"U","NORAD_CAT_ID":67772,"ELEMENT_SET_NO":999,"REV_AT_EPOCH":509,"BSTAR":0.00070618576,"MEAN_MOTION_DOT":0.00025755,"MEAN_MOTION_DDOT":0}]
